ONEWEB-0126             
1 47272U 20100Q   24032.76465421 -.00000300  00000+0 -86994-3 0  9994
2 47272  87.9036 163.0365 0001458  97.5837 262.5457 13.12444472151053
ONEWEB-0127             
1 47273U 20100R   24032.42080291  .00000411  00000+0  11085-2 0  9995
2 47273  87.9038 163.1280 0001482  99.0165 261.1131 13.12441874151036
ONEWEB-0128             
1 47274U 20100S   24032.74797913  .00000155  00000+0  39502-3 0  9997
2 47274  87.9046 163.0586 0001869  97.1890 262.9451 13.12440121151091
ONEWEB-0129             
1 47275U 20100T   24032.80358508  .00000446  00000+0  12034-2 0  9991
2 47275  87.9037 163.0229 0000994  29.3317 330.7867 13.12441899151037
ONEWEB-0130             
1 47276U 20100U   24032.75592297 -.00000164  00000+0 -49252-3 0  9993
2 47276  87.9037 163.0425 0001621  97.2537 262.8776 13.12440586150992
ONEWEB-0131             
1 47277U 20100V   24032.82898654 -.00000057  00000+0 -19261-3 0  9996
2 47277  87.9040 163.0389 0001723 101.8602 258.2720 13.12439592151044
ONEWEB-0132             
1 47278U 20100W   24032.78132408 -.00000209  00000+0 -61544-3 0  9990
2 47278  87.9040 163.0505 0001806 109.8044 250.3279 13.12441744150936
ONEWEB-0133             
1 47279U 20100X   24032.79722093  .00000315  00000+0  84140-3 0  9990
2 47279  87.9034 163.0537 0001734 103.3992 256.7330 13.12441993151098
